satname,norad_id,inclination_deg,eccentricity,mean_motion_rev_per_day,perigee_km,apogee_km,l1,l2
STARLINK-1496,45780,53.0553,0.000319,15.38236236,449.1462432045482,453.5034398594453,1 45780U 20038BC  26013.59025559  .00035727  00000+0  94031-3 0  9992,2 45780  53.0553  79.4663 0003190  24.5480 335.5675 15.38236236308507
STARLINK-1497,45781,53.0315,0.0007471,15.83472383,315.6249437691604,325.63424081135963,1 45781U 20038BD  26013.66670139  .00287905  00000+0  12510-2 0  9999,2 45781  53.0315 356.9414 0007471  70.6303 153.1473 15.83472383  5973
STARLINK-1513,45786,53.0556,0.0001372,15.06405122,546.2457041220978,548.1460154588231,1 45786U 20038BJ  26013.51446938  .00001349  00000+0  10946-3 0  9994,2 45786  53.0556  84.3113 0001372  90.6203 269.4943 15.06405122308441
STARLINK-1522,46027,53.0565,0.0001469,15.06392537,546.2170939896178,548.2517681160607,1 46027U 20055A   26013.29607054 -.00000169  00000+0  75418-5 0  9992,2 46027  53.0565  15.2885 0001469  89.5160 270.5997 15.06392537300534
STARLINK-1523,46028,53.0546,0.000142,15.06402647,546.2200469331665,548.1868436196255,1 46028U 20055B   26013.50984817  .00001750  00000+0  13633-3 0  9997,2 46028  53.0546  14.3315 0001420  92.6097 267.5055 15.06402647300583
STARLINK-1526,46029,53.0562,0.0001355,15.06394881,546.2888601249688,548.1656338359007,1 46029U 20055C   26013.36978681  .00000290  00000+0  38370-4 0  9998,2 46029  53.0562  14.9582 0001355  89.9569 270.1575 15.06394881300558
STARLINK-1555,46032,53.0551,0.000128,15.06410704,546.2923114979494,548.0651923304385,1 46032U 20055F   26013.28868601  .00003477  00000+0  25214-3 0  9995,2 46032  53.0551  15.3218 0001280  88.7859 271.3276 15.06410704300540
STARLINK-1556,46033,53.0557,0.0001459,15.0639888,546.2045817236694,548.2253994345201,1 46033U 20055G   26013.27026563  .00001212  00000+0  10028-3 0  9990,2 46033  53.0557  15.4042 0001459  92.3550 267.7606 15.06398880300513
STARLINK-1557,46034,53.056,0.0001331,15.06416184,546.2401994621314,548.0837140444191,1 46034U 20055H   26013.40663887  .00001288  00000+0  10528-3 0  9990,2 46034  53.0560  14.7922 0001331  85.5951 274.5190 15.06416184300539
STARLINK-1558,46035,53.0553,0.0001539,15.06386181,546.1880938454715,548.3197291680335,1 46035U 20055J   26013.28133478 -.00001398  00000+0 -75003-4 0  9999,2 46035  53.0553  15.3580 0001539  88.6995 271.4170 15.06386181300549
STARLINK-1560,46036,53.0532,0.0001366,15.06399737,546.2663612723945,548.1583667186378,1 46036U 20055K   26013.26657079 -.00001693  00000+0 -94767-4 0  9992,2 46036  53.0532  15.4244 0001366  80.1654 279.9489 15.06399737300549
STARLINK-1567,46038,53.0554,0.0001304,15.06405094,546.2928821898358,548.0990090220503,1 46038U 20055M   26013.41032807 -.00000666  00000+0 -25842-4 0  9994,2 46038  53.0554  14.7764 0001304  87.1359 272.9780 15.06405094300557
STARLINK-1569,46039,53.055,0.0001363,15.06400334,546.2666094076503,548.154459145494,1 46039U 20055N   26013.41769893  .00000695  00000+0  65554-4 0  9991,2 46039  53.0550  14.7434 0001363  88.6104 271.5041 15.06400334300554
STARLINK-1582,46043,53.0555,0.0001425,15.06398119,546.2304599473437,548.2041859293804,1 46043U 20055S   26013.29238183 -.00000685  00000+0 -27112-4 0  9994,2 46043  53.0555  15.3054 0001425  92.2372 267.8780 15.06398119300539
STARLINK-1591,46045,53.0552,0.0001136,15.06389631,546.4566144058062,548.0300608185116,1 46045U 20055U   26013.25184610  .00004727  00000+0  33609-3 0  9993,2 46045  53.0552  15.4884 0001136  88.3923 271.7196 15.06389631300519
STARLINK-1524,46047,53.055,0.0001271,15.06397453,546.339151343559,548.099576931324,1 46047U 20055W   26013.40387956 -.00000306  00000+0 -16525-5 0  9991,2 46047  53.0550   4.8047 0001271  79.5382 280.5750 15.06397453300697
STARLINK-1527,46048,53.0563,0.00016,15.06403509,546.092749331001,548.3088574280819,1 46048U 20055X   26013.26749748 -.00000160  00000+0  81870-5 0  9999,2 46048  53.0563   5.4181 0001600  84.6667 275.4505 15.06403509300654
STARLINK-1540,46051,53.0539,0.000146,15.06398664,546.2045511016067,548.2267540761632,1 46051U 20055AA  26013.23432924  .00000759  00000+0  69832-4 0  9991,2 46051  53.0539   5.5658 0001460  90.6695 269.4461 15.06398664300685
STARLINK-1541,46052,53.0553,0.0001568,15.06389674,546.1573062055713,548.329105438117,1 46052U 20055AB  26013.35229238  .00002383  00000+0  17888-3 0  9995,2 46052  53.0553   5.0366 0001568 107.8132 252.3028 15.06389674300668
STARLINK-1543,46053,53.0563,0.0001482,15.06397505,546.1928669749395,548.2455425540311,1 46053U 20055AC  26013.22327564  .00000542  00000+0  55276-4 0  9992,2 46053  53.0563   5.6175 0001482  91.2534 268.8625 15.06397505300679
STARLINK-1548,46054,53.0558,0.0001525,15.06395228,546.1700655841132,548.2823013550706,1 46054U 20055AD  26013.23064678  .00000760  00000+0  69950-4 0  9994,2 46054  53.0558   5.5831 0001525  93.2790 266.8374 15.06395228300675
STARLINK-1554,46055,53.0558,0.0001125,15.06391885,546.4573248453526,548.0155338669574,1 46055U 20055AE  26013.34860136  .00004716  00000+0  33536-3 0  9995,2 46055  53.0558   5.0535 0001125  96.5568 263.5549 15.06391885300692
STARLINK-1564,46058,53.0555,0.0001665,15.06399442,546.0601973087951,548.3663389480816,1 46058U 20055AH  26013.49240223  .00000506  00000+0  52877-4 0  9996,2 46058  53.0555   4.8702 0001665  92.5728 267.5452 15.06399442300704
STARLINK-1570,46059,53.0537,0.0001564,15.0639825,546.133796088111,548.3000467947386,1 46059U 20055AJ  26013.25644075 -.00000159  00000+0  82527-5 0  9995,2 46059  53.0537   5.4674 0001564  89.6065 270.5103 15.06398250300634
STARLINK-1572,46060,53.0548,0.0001352,15.06398273,546.2805431089528,548.1531587902491,1 46060U 20055AK  26013.38544976  .00000506  00000+0  52878-4 0  9990,2 46060  53.0548   4.8862 0001352  92.5590 267.5553 15.06398273300664
STARLINK-1573,46061,53.0557,0.0001466,15.06408595,546.1699633896242,548.2004678632466,1 46061U 20055AL  26013.38177931  .00005060  00000+0  35829-3 0  9990,2 46061  53.0557   4.9416 0001466  90.5172 269.5985 15.06408595300694
STARLINK-1577,46063,53.0565,0.000135,15.06409018,546.2490008808954,548.1188375290812,1 46063U 20055AN  26013.34120675  .00001556  00000+0  12332-3 0  9991,2 46063  53.0565   5.0852 0001350  86.6630 273.4513 15.06409018300689
STARLINK-1583,46064,53.0545,0.0001403,15.0638888,546.2740081620568,548.2172705306575,1 46064U 20055AP  26013.44073596 -.00001501  00000+0 -81933-4 0  9998,2 46064  53.0545   4.6393 0001403  89.1949 270.9201 15.06388880300705
